{
    "links": {
        "self": "http://www.neowsapp.com/rest/v1/neo/3385826?api_key=iIulBulltgU6a56xZRHN4H3l9WmuAYTsLGpBGhQ2"
    },
    "id": "3385826",
    "neo_reference_id": "3385826",
    "name": "(2007 SU1)",
    "designation": "2007 SU1",
    "nasa_jpl_url": "http://ssd.jpl.nasa.gov/sbdb.cgi?sstr=3385826",
    "absolute_magnitude_h": 25.5,
    "estimated_diameter": {
        "kilometers": {
            "estimated_diameter_min": 0.0211132445,
            "estimated_diameter_max": 0.0472106499
        },
        "meters": {
            "estimated_diameter_min": 21.113244479,
            "estimated_diameter_max": 47.2106498806
        },
        "miles": {
            "estimated_diameter_min": 0.0131191578,
            "estimated_diameter_max": 0.0293353287
        },
        "feet": {
            "estimated_diameter_min": 69.2691770164,
            "estimated_diameter_max": 154.8905885541
        }
    },
    "is_potentially_hazardous_asteroid": false,
    "close_approach_data": [
        {
            "close_approach_date": "2007-09-26",
            "close_approach_date_full": "2007-Sep-26 02:28",
            "epoch_date_close_approach": 1190773680000,
            "relative_velocity": {
                "kilometers_per_second": "8.822533898",
                "kilometers_per_hour": "31761.122032973",
                "miles_per_hour": "19735.1260765437"
            },
            "miss_distance": {
                "astronomical": "0.0151901514",
                "lunar": "5.9089688946",
                "kilometers": "2272414.294417518",
                "miles": "1412012.7666490284"
            },
            "orbiting_body": "Earth"
        }
    ],
    "orbital_data": {
        "orbit_id": "10",
        "orbit_determination_date": "2017-04-06 09:05:56",
        "first_observation_date": "2007-09-19",
        "last_observation_date": "2007-09-26",
        "data_arc_in_days": 7,
        "observations_used": 39,
        "orbit_uncertainty": "7",
        "minimum_orbit_intersection": ".00665328",
        "jupiter_tisserand_invariant": "3.260",
        "epoch_osculation": "2459000.5",
        "eccentricity": ".593719953805513",
        "semi_major_axis": "2.400734470495489",
        "inclination": "2.438700293594324",
        "ascending_node_longitude": "354.4295692971327",
        "orbital_period": "1358.671980735559",
        "perihelion_distance": ".9753705115736043",
        "perihelion_argument": "31.0962578277851",
        "aphelion_distance": "3.826098429417373",
        "perihelion_time": "2458478.678994295428",
        "mean_anomaly": "138.2641025333757",
        "mean_motion": ".2649646162608748",
        "equinox": "J2000",
        "orbit_class": {
            "orbit_class_type": "APO",
            "orbit_class_description": "Near-Earth asteroid orbits which cross the Earth’s orbit similar to that of 1862 Apollo",
            "orbit_class_range": "a (semi-major axis) > 1.0 AU; q (perihelion) < 1.017 AU"
        }
    },
    "is_sentry_object": false
}